[{"OBJECT_NAME":"STARLINK-1552","OBJECT_ID":"2020-055BB","EPOCH":"2026-03-09T07:33:49.307328","MEAN_MOTION":15.06392702,"ECCENTRICITY":0.00011824,"INCLINATION":53.0548,"RA_OF_ASC_NODE":98.3005,"ARG_OF_PERICENTER":77.5639,"MEAN_ANOMALY":282.5483,"EPHEMERIS_TYPE":0,"CLASSIFICATION_TYPE":"U","NORAD_CAT_ID":46076,"ELEMENT_SET_NO":999,"REV_AT_EPOCH":30923,"BSTAR":3.957104e-6,"MEAN_MOTION_DOT":-2.22e-6,"MEAN_MOTION_DDOT":0},{"OBJECT_NAME":"CZ-6A DEB","OBJECT_ID":"2024-140AV","EPOCH":"2026-03-09T16:02:49.073856","MEAN_MOTION":14.88911619,"ECCENTRICITY":0.00760382,"INCLINATION":89.0057,"RA_OF_ASC_NODE":281.1228,"ARG_OF_PERICENTER":170.8875,"MEAN_ANOMALY":189.3755,"EPHEMERIS_TYPE":0,"CLASSIFICATION_TYPE":"U","NORAD_CAT_ID":60644,"ELEMENT_SET_NO":999,"REV_AT_EPOCH":8516,"BSTAR":0.002692912,"MEAN_MOTION_DOT":0.00026759,"MEAN_MOTION_DDOT":0}]
